{"type": "FeatureCollection", "features": [ {"type": "Feature", "properties": {"norad_id": 66728, "name": "FLOCK 4H-25", "group": "last-30-days", "lat": 82.056367146886, "lon": -37.36867100249059, "alt_km": 502.4652833187547, "timestamp": "2025-12-27T15:27:09.829944+00:00", "meta": {"OBJECT_NAME": "FLOCK 4H-25", "OBJECT_ID": "2025-276BQ", "EPOCH": "2025-12-27T05:33:18.633024", "MEAN_MOTION": 15.18268911, "ECCENTRICITY": 0.00017587, "INCLINATION": 97.4391, "RA_OF_ASC_NODE": 72.7713, "ARG_OF_PERICENTER": 114.5883, "MEAN_ANOMALY": 245.5534, "EPHEMERIS_TYPE": 0, "CLASSIFICATION_TYPE": "U", "NORAD_CAT_ID": 66728, "ELEMENT_SET_NO": 999, "REV_AT_EPOCH": 360, "BSTAR": 0.0003458312, "MEAN_MOTION_DOT": 7.021e-05, "MEAN_MOTION_DDOT": 0}, "tle": {"line1": "1 66728U 25276BQ  25361.23146566  .00007021  00000+0  34583-3 0  9996", "line2": "2 66728  97.4391  72.7713 0001758 114.5883 245.5534 15.18268911  3601"}}, "geometry": {"type": "Point", "coordinates": [-37.36867100249059, 82.056367146886]}}, {"type": "Feature", "properties": {"norad_id": 66729, "name": "FLOCK 4H-26", "group": "last-30-days", "lat": -19.64479073705108, "lon": 75.80097411181156, "alt_km": 520.1143138894304, "timestamp": "2025-12-27T15:27:09.829957+00:00", "meta": {"OBJECT_NAME": "FLOCK 4H-26", "OBJECT_ID": "2025-276BR", "EPOCH": "2025-12-27T06:02:33.979488", "MEAN_MOTION": 15.17209761, "ECCENTRICITY": 0.00036565, "INCLINATION": 97.4386, "RA_OF_ASC_NODE": 72.7429, "ARG_OF_PERICENTER": 237.5223, "MEAN_ANOMALY": 122.5658, "EPHEMERIS_TYPE": 0, "CLASSIFICATION_TYPE": "U", "NORAD_CAT_ID": 66729, "ELEMENT_SET_NO": 999, "REV_AT_EPOCH": 432, "BSTAR": 0.00040660091, "MEAN_MOTION_DOT": 8.02e-05, "MEAN_MOTION_DDOT": 0}, "tle": {"line1": "1 66729U 25276BR  25361.25178217  .00008020  00000+0  40660-3 0  9990", "line2": "2 66729  97.4386  72.7429 0003656 237.5223 122.5658 15.17209761  4321"}}, "geometry": {"type": "Point", "coordinates": [75.80097411181156, -19.64479073705108]}}, {"type": "Feature", "properties": {"norad_id": 66730, "name": "FLOCK 4H-27", "group": "last-30-days", "lat": 76.6536924132976, "lon": 39.75684086547148, "alt_km": 503.29854805396553, "timestamp": "2025-12-27T15:27:09.829967+00:00", "meta": {"OBJECT_NAME": "FLOCK 4H-27", "OBJECT_ID": "2025-276BS", "EPOCH": "2025-12-27T05:36:55.266336", "MEAN_MOTION": 15.18156336, "ECCENTRICITY": 0.00018133, "INCLINATION": 97.4364, "RA_OF_ASC_NODE": 72.7587, "ARG_OF_PERICENTER": 127.4119, "MEAN_ANOMALY": 232.728, "EPHEMERIS_TYPE": 0, "CLASSIFICATION_TYPE": "U", "NORAD_CAT_ID": 66730, "ELEMENT_SET_NO": 999, "REV_AT_EPOCH": 432, "BSTAR": 0.0009864839, "MEAN_MOTION_DOT": 0.0002012, "MEAN_MOTION_DDOT": 0}, "tle": {"line1": "1 66730U 25276BS  25361.23397299  .00020120  00000+0  98648-3 0  9997", "line2": "2 66730  97.4364  72.7587 0001813 127.4119 232.7280 15.18156336  4323"}}, "geometry": {"type": "Point", "coordinates": [39.75684086547148, 76.6536924132976]}}, {"type": "Feature", "properties": {"norad_id": 66731, "name": "FLOCK 4H-28", "group": "last-30-days", "lat": -18.175397166811962, "lon": 75.58199239242957, "alt_km": 519.9010782214073, "timestamp": "2025-12-27T15:27:09.829978+00:00", "meta": {"OBJECT_NAME": "FLOCK 4H-28", "OBJECT_ID": "2025-276BT", "EPOCH": "2025-12-27T06:02:10.167648", "MEAN_MOTION": 15.17195704, "ECCENTRICITY": 0.00033603, "INCLINATION": 97.4373, "RA_OF_ASC_NODE": 72.7389, "ARG_OF_PERICENTER": 240.7929, "MEAN_ANOMALY": 119.2969, "EPHEMERIS_TYPE": 0, "CLASSIFICATION_TYPE": "U", "NORAD_CAT_ID": 66731, "ELEMENT_SET_NO": 999, "REV_AT_EPOCH": 432, "BSTAR": 0.0004994524, "MEAN_MOTION_DOT": 9.865e-05, "MEAN_MOTION_DDOT": 0}, "tle": {"line1": "1 66731U 25276BT  25361.25150657  .00009865  00000+0  49945-3 0  9994", "line2": "2 66731  97.4373  72.7389 0003360 240.7929 119.2969 15.17195704  4325"}}, "geometry": {"type": "Point", "coordinates": [75.58199239242957, -18.175397166811962]}}, {"type": "Feature", "properties": {"norad_id": 66732, "name": "FLOCK 4H-29", "group": "last-30-days", "lat": -3.757959018048582, "lon": 73.6160661906261, "alt_km": 517.7743055981182, "timestamp": "2025-12-27T15:27:09.829990+00:00", "meta": {"OBJECT_NAME": "FLOCK 4H-29", "OBJECT_ID": "2025-276BU", "EPOCH": "2025-12-27T07:33:20.335680", "MEAN_MOTION": 15.17315513, "ECCENTRICITY": 0.00021694, "INCLINATION": 97.4367, "RA_OF_ASC_NODE": 72.8015, "ARG_OF_PERICENTER": 257.5819, "MEAN_ANOMALY": 102.5172, "EPHEMERIS_TYPE": 0, "CLASSIFICATION_TYPE": "U", "NORAD_CAT_ID": 66732, "ELEMENT_SET_NO": 999, "REV_AT_EPOCH": 433, "BSTAR": 6.6574393e-05, "MEAN_MOTION_DOT": 1.261e-05, "MEAN_MOTION_DDOT": 0}, "tle": {"line1": "1 66732U 25276BU  25361.31481870  .00001261  00000+0  66574-4 0  9996", "line2": "2 66732  97.4367  72.8015 0002169 257.5819 102.5172 15.17315513  4330"}}, "geometry": {"type": "Point", "coordinates": [73.6160661906261, -3.757959018048582]}}, {"type": "Feature", "properties": {"norad_id": 66733, "name": "FLOCK 4H-30", "group": "last-30-days", "lat": -10.29979013118672, "lon": 74.5107578434889, "alt_km": 518.9835058928711, "timestamp": "2025-12-27T15:27:09.830000+00:00", "meta": {"OBJECT_NAME": "FLOCK 4H-30", "OBJECT_ID": "2025-276BV", "EPOCH": "2025-12-27T06:00:02.000160", "MEAN_MOTION": 15.17327596, "ECCENTRICITY": 0.00032771, "INCLINATION": 97.4426, "RA_OF_ASC_NODE": 72.7626, "ARG_OF_PERICENTER": 243.2542, "MEAN_ANOMALY": 116.5199, "EPHEMERIS_TYPE": 0, "CLASSIFICATION_TYPE": "U", "NORAD_CAT_ID": 66733, "ELEMENT_SET_NO": 999, "REV_AT_EPOCH": 374, "BSTAR": -0.0010246895, "MEAN_MOTION_DOT": -0.00020432, "MEAN_MOTION_DDOT": 0}, "tle": {"line1": "1 66733U 25276BV  25361.25002315 -.00020432  00000+0 -10247-2 0  9990", "line2": "2 66733  97.4426  72.7626 0003277 243.2542 116.5199 15.17327596  3742"}}, "geometry": {"type": "Point", "coordinates": [74.5107578434889, -10.29979013118672]}}, {"type": "Feature", "properties": {"norad_id": 66734, "name": "FLOCK 4H-31", "group": "last-30-days", "lat": -10.431363364834288, "lon": 74.50067745527373, "alt_km": 518.7724368171284, "timestamp": "2025-12-27T15:27:09.830010+00:00", "meta": {"OBJECT_NAME": "FLOCK 4H-31", "OBJECT_ID": "2025-276BW", "EPOCH": "2025-12-27T06:00:02.000160", "MEAN_MOTION": 15.17276827, "ECCENTRICITY": 0.00025246, "INCLINATION": 97.4362, "RA_OF_ASC_NODE": 72.7363, "ARG_OF_PERICENTER": 250.6556, "MEAN_ANOMALY": 109.0656, "EPHEMERIS_TYPE": 0, "CLASSIFICATION_TYPE": "U", "NORAD_CAT_ID": 66734, "ELEMENT_SET_NO": 999, "REV_AT_EPOCH": 374, "BSTAR": -0.0010547354, "MEAN_MOTION_DOT": -0.00020996, "MEAN_MOTION_DDOT": 0}, "tle": {"line1": "1 66734U 25276BW  25361.25002315 -.00020996  00000+0 -10547-2 0  9999", "line2": "2 66734  97.4362  72.7363 0002524 250.6556 109.0656 15.17276827  3746"}}, "geometry": {"type": "Point", "coordinates": [74.50067745527373, -10.431363364834288]}}, {"type": "Feature", "properties": {"norad_id": 66735, "name": "FLOCK 4H-32", "group": "last-30-days", "lat": -12.294909135108592, "lon": 74.77713500109252, "alt_km": 519.4599633883427, "timestamp": "2025-12-27T15:27:09.830021+00:00", "meta": {"OBJECT_NAME": "FLOCK 4H-32", "OBJECT_ID": "2025-276BX", "EPOCH": "2025-12-27T06:00:38.257920", "MEAN_MOTION": 15.17287714, "ECCENTRICITY": 0.00036537, "INCLINATION": 97.4421, "RA_OF_ASC_NODE": 72.7582, "ARG_OF_PERICENTER": 237.9505, "MEAN_ANOMALY": 122.1374, "EPHEMERIS_TYPE": 0, "CLASSIFICATION_TYPE": "U", "NORAD_CAT_ID": 66735, "ELEMENT_SET_NO": 999, "REV_AT_EPOCH": 432, "BSTAR": 0.00049630045, "MEAN_MOTION_DOT": 9.828e-05, "MEAN_MOTION_DDOT": 0}, "tle": {"line1": "1 66735U 25276BX  25361.25044280  .00009828  00000+0  49630-3 0  9992", "line2": "2 66735  97.4421  72.7582 0003653 237.9505 122.1374 15.17287714  4327"}}, "geometry": {"type": "Point", "coordinates": [74.77713500109252, -12.294909135108592]}}, {"type": "Feature", "properties": {"norad_id": 66736, "name": "FLOCK 4H-33", "group": "last-30-days", "lat": 79.93252028545221, "lon": -59.39822886286579, "alt_km": 502.1265927071572, "timestamp": "2025-12-27T15:27:09.830030+00:00", "meta": {"OBJECT_NAME": "FLOCK 4H-33", "OBJECT_ID": "2025-276BY", "EPOCH": "2025-12-27T05:32:17.127456", "MEAN_MOTION": 15.18359796, "ECCENTRICITY": 0.00029315, "INCLINATION": 97.4419, "RA_OF_ASC_NODE": 72.7838, "ARG_OF_PERICENTER": 149.3249, "MEAN_ANOMALY": 210.8157, "EPHEMERIS_TYPE": 0, "CLASSIFICATION_TYPE": "U", "NORAD_CAT_ID": 66736, "ELEMENT_SET_NO": 999, "REV_AT_EPOCH": 432, "BSTAR": 0.00057273764, "MEAN_MOTION_DOT": 0.00011709, "MEAN_MOTION_DDOT": 0}, "tle": {"line1": "1 66736U 25276BY  25361.23075379  .00011709  00000+0  57274-3 0  9998", "line2": "2 66736  97.4419  72.7838 0002931 149.3249 210.8157 15.18359796  4323"}}, "geometry": {"type": "Point", "coordinates": [-59.39822886286579, 79.93252028545221]}}, {"type": "Feature", "properties": {"norad_id": 66737, "name": "FLOCK 4H-34", "group": "last-30-days", "lat": 81.08354270864939, "lon": 16.751401785049456, "alt_km": 503.153007996355, "timestamp": "2025-12-27T15:27:09.830041+00:00", "meta": {"OBJECT_NAME": "FLOCK 4H-34", "OBJECT_ID": "2025-276BZ", "EPOCH": "2025-12-27T05:35:18.323808", "MEAN_MOTION": 15.18209548, "ECCENTRICITY": 0.00027391, "INCLINATION": 97.4433, "RA_OF_ASC_NODE": 72.7865, "ARG_OF_PERICENTER": 156.2486, "MEAN_ANOMALY": 203.8875, "EPHEMERIS_TYPE": 0, "CLASSIFICATION_TYPE": "U", "NORAD_CAT_ID": 66737, "ELEMENT_SET_NO": 999, "REV_AT_EPOCH": 357, "BSTAR": 0.0005112847, "MEAN_MOTION_DOT": 0.00010399, "MEAN_MOTION_DDOT": 0}, "tle": {"line1": "1 66737U 25276BZ  25361.23285097  .00010399  00000+0  51128-3 0  9995", "line2": "2 66737  97.4433  72.7865 0002739 156.2486 203.8875 15.18209548  3570"}}, "geometry": {"type": "Point", "coordinates": [16.751401785049456, 81.08354270864939]}}]}